1 40730U 15033A   19040.37179072 -.00000059  00000-0  00000+0 0  9990
2 40730  55.5889  15.7182 0043300 336.8985  22.9086  2.00561648 26166
1 40730U 15033A   19040.37179072 -.00000059  00000-0  00000-0 0  9991
2 40730  55.5889  15.7182 0043300 336.8985  22.9086  2.00561648 26166
1 40730U 15033A   19041.36896744 -.00000054  00000-0  00000+0 0  9997
2 40730  55.5890  15.6784 0043332 336.9453  22.8638  2.00561572 26181
1 40730U 15033A   19041.36896744 -.00000054  00000-0  00000-0 0  9998
2 40730  55.5890  15.6784 0043332 336.9453  22.8638  2.00561572 26181
1 40730U 15033A   19042.36614420 -.00000051  00000-0  00000-0 0  9995
2 40730  55.5891  15.6385 0043373 337.0183  22.7927  2.00561482 26209
1 40730U 15033A   19042.86473223 -.00000050  00000-0  00000+0 0  9992
2 40730  55.5892  15.6185 0043388 337.0506  22.7611  2.00561447 26215
1 40730U 15033A   19043.36331945 -.00000049  00000-0  00000-0 0  9991
2 40730  55.5892  15.5986 0043410 337.0903  22.7219  2.00561423 26229
1 40730U 15033A   19043.86190746 -.00000049  00000-0  00000+0 0  9997
2 40730  55.5893  15.5787 0043431 337.1357  22.6769  2.00561365 26231
1 40730U 15033A   19044.36049520 -.00000049  00000-0  00000-0 0  9997
2 40730  55.5893  15.5587 0043443 337.1607  22.6518  2.00561313 26246
1 40730U 15033A   19044.85908242 -.00000050  00000-0  00000+0 0  9997
2 40730  55.5894  15.5388 0043464 337.2204  22.5919  2.00561251 26259
1 40730U 15033A   19045.85625497 -.00000052  00000-0  00000+0 0  9998
2 40730  55.5895  15.4989 0043500 337.2891  22.5215  2.00561196 26278
1 40730U 15033A   19045.85625513 -.00000052  00000-0  00000-0 0  9998
2 40730  55.5895  15.4989 0043483 337.2760  22.5346  2.00561223 26268
1 40730U 15033A   19047.35201390 -.00000059  00000-0  00000-0 0  9995
2 40730  55.5897  15.4390 0043544 337.3887  22.4179  2.00561045 26305
1 40730U 15033A   19047.35201442 -.00000059  00000-0  00000+0 0  9992
2 40730  55.5897  15.4390 0043534 337.3811  22.4254  2.00561042 26302
1 40730U 15033A   19048.34918498 -.00000064  00000-0  00000-0 0  9995
2 40730  55.5898  15.3991 0043580 337.4734  22.3300  2.00560991 26320
1 40730U 15033A   19048.84777106 -.00000066  00000-0  00000+0 0  9990
2 40730  55.5899  15.3791 0043595 337.5058  22.2962  2.00560961 26336
1 40730U 15033A   19049.34635623 -.00000068  00000-0  00000-0 0  9996
2 40730  55.5899  15.3592 0043612 337.5555  22.2453  2.00560965 26347
1 40730U 15033A   19049.84494254 -.00000071  00000-0  00000+0 0  9997
2 40730  55.5900  15.3392 0043632 337.6071  22.1928  2.00560965 26351
1 40730U 15033A   19051.34070776 -.00000076  00000-0  00000-0 0  9990
2 40730  55.5902  15.2794 0043676 337.7060  22.0925  2.00560830 26385
1 40730U 15033A   19051.83929647 -.00000077  00000-0  00000+0 0  9994
2 40730  55.5902  15.2594 0043692 337.7459  22.0528  2.00560811 26392
1 40730U 15033A   19052.33788604 -.00000078  00000-0  00000-0 0  9998
2 40730  55.5903  15.2395 0043709 337.7911  22.0081  2.00560780 26405
1 40730U 15033A   19052.83647535 -.00000079  00000-0  00000+0 0  9990
2 40730  55.5903  15.2195 0043723 337.8326  21.9673  2.00560776 26411
1 40730U 15033A   19053.83365420 -.00000081  00000-0  00000+0 0  9994
2 40730  55.5904  15.1796 0043755 337.9211  21.8808  2.00560779 26431
1 40730U 15033A   19055.82801591 -.00000085  00000-0  00000+0 0  9993
2 40730  55.5906  15.0999 0043798 338.0498  21.7555  2.00560698 26475
1 40730U 15033A   19055.82801591 -.00000085  00000-0  00000-0 0  9994
2 40730  55.5906  15.0999 0043798 338.0498  21.7555  2.00560698 26475
1 40730U 15033A   19056.32660530 -.00000086  00000-0  00000-0 0  9997
2 40730  55.5907  15.0800 0043819 338.0989  21.7069  2.00560696 26485
1 40730U 15033A   19057.32378376 -.00000088  00000-0  00000+0 0  9993
2 40730  55.5907  15.0401 0043847 338.1765  21.6300  2.00560696 26506
1 40730U 15033A   19058.32096295 -.00000091  00000-0  00000-0 0  9996
2 40730  55.5908  15.0002 0043881 338.2693  21.5373  2.00560647 26520
1 40730U 15033A   19059.31814098 -.00000094  00000-0  00000+0 0  9997
2 40730  55.5909  14.9603 0043902 338.3271  21.4788  2.00560616 26540
1 40730U 15033A   19059.81672940 -.00000095  00000-0  00000-0 0  9992
2 40730  55.5910  14.9404 0043909 338.3525  21.4529  2.00560624 26553
1 40730U 15033A   19060.31531880 -.00000095  00000-0  00000+0 0  9995
2 40730  55.5910  14.9204 0043929 338.3986  21.4065  2.00560590 26562
1 40730U 15033A   19060.81390820 -.00000096  00000-0  00000+0 0  9998
2 40730  55.5911  14.9005 0043943 338.4373  21.3675  2.00560564 26577
1 40730U 15033A   19060.81390820 -.00000096  00000-0  00000-0 0  9999
2 40730  55.5911  14.9005 0043943 338.4373  21.3675  2.00560564 26577
1 40730U 15033A   19062.30967458 -.00000095  00000-0  00000+0 0  9990
2 40730  55.5912  14.8408 0043981 338.5503  21.2541  2.00560579 26603
1 40730U 15033A   19062.30967606 -.00000095  00000-0  00000-0 0  9996
2 40730  55.5912  14.8408 0043992 338.5652  21.2393  2.00560523 26604
1 40730U 15033A   19062.80826646 -.00000094  00000-0  00000+0 0  9997
2 40730  55.5912  14.8209 0044009 338.6188  21.1858  2.00560489 26615
1 40730U 15033A   19064.30403762 -.00000088  00000-0  00000+0 0  9997
2 40730  55.5913  14.7611 0044033 338.7040  21.1019  2.00560444 26640
1 40730U 15033A   19065.30122094 -.00000083  00000-0  00000+0 0  9999
2 40730  55.5914  14.7213 0044062 338.7918  21.0162  2.00560358 26669
1 40730U 15033A   19065.79981257 -.00000081  00000-0  00000-0 0  9995
2 40730  55.5914  14.7014 0044071 338.8253  20.9839  2.00560348 26670
1 40730U 15033A   19066.29840474 -.00000078  00000-0  00000+0 0  9991
2 40730  55.5914  14.6815 0044088 338.8746  20.9361  2.00560301 26683
1 40730U 15033A   19067.29558945 -.00000073  00000-0  00000+0 0  9996
2 40730  55.5915  14.6416 0044103 338.9342  20.8797  2.00560244 26703
1 40730U 15033A   19067.29558963 -.00000073  00000-0  00000-0 0  9997
2 40730  55.5915  14.6416 0044118 338.9547  20.8593  2.00560214 26707
1 40730U 15033A   19067.79418223 -.00000070  00000-0  00000-0 0  9993
2 40730  55.5915  14.6217 0044123 338.9632  20.8522  2.00560187 26719
1 40730U 15033A   19068.29277491 -.00000068  00000-0  00000+0 0  9995
2 40730  55.5915  14.6018 0044140 338.9968  20.8203  2.00560145 26720
1 40730U 15033A   19068.79136736 -.00000066  00000-0  00000+0 0  9994
2 40730  55.5916  14.5818 0044151 339.0303  20.7885  2.00560119 26732
1 40730U 15033A   19068.79136748 -.00000066  00000-0  00000-0 0  9998
2 40730  55.5916  14.5818 0044143 339.0244  20.7943  2.00560136 26731
1 40730U 15033A   19069.28996045 -.00000064  00000-0  00000-0 0  9995
2 40730  55.5916  14.5619 0044161 339.0603  20.7599  2.00560070 26744
1 40730U 15033A   19070.28714627 -.00000062  00000-0  00000+0 0  9998
2 40730  55.5917  14.5221 0044179 339.1343  20.6886  2.00559981 26764
1 40730U 15033A   19071.28432996 -.00000061  00000-0  00000+0 0  9994
2 40730  55.5917  14.4822 0044213 339.2233  20.6014  2.00559891 26783
1 40730U 15033A   19071.28432996 -.00000061  00000-0  00000-0 0  9995
2 40730  55.5917  14.4822 0044213 339.2233  20.6014  2.00559891 26783
1 40730U 15033A   19071.28433099 -.00000061  00000-0  00000+0 0  9999
2 40730  55.5917  14.4822 0044201 339.2119  20.6127  2.00559881 26787
1 40730U 15033A   19072.78010366 -.00000063  00000-0  00000-0 0  9996
2 40730  55.5918  14.4224 0044230 339.3250  20.5001  2.00559807 26815
1 40730U 15033A   19073.27869490 -.00000064  00000-0  00000+0 0  9991
2 40730  55.5918  14.4024 0044239 339.3692  20.4556  2.00559752 26826
1 40730U 15033A   19073.27869637 -.00000064  00000-0  00000-0 0  9995
2 40730  55.5918  14.4024 0044248 339.3641  20.4606  2.00559678 26823
1 40730U 15033A   19074.27587626 -.00000068  00000-0  00000-0 0  9995
2 40730  55.5919  14.3625 0044270 339.4630  20.3604  2.00559621 26841
1 40730U 15033A   19075.27305644 -.00000072  00000-0  00000-0 0  9999
2 40730  55.5919  14.3226 0044289 339.5381  20.2833  2.00559564 26863
1 40730U 15033A   19075.27305736 -.00000072  00000-0  00000+0 0  9990
2 40730  55.5919  14.3226 0044288 339.5201  20.3012  2.00559534 26860
1 40730U 15033A   19076.27023650 -.00000077  00000-0  00000+0 0  9998
2 40730  55.5920  14.2827 0044302 339.6122  20.2075  2.00559544 26889
1 40730U 15033A   19077.26742104 -.00000081  00000-0  00000+0 0  9995
2 40730  55.5921  14.2427 0044314 339.6874  20.1313  2.00559419 26901
1 40730U 15033A   19078.26460426 -.00000085  00000-0  00000+0 0  9994
2 40730  55.5921  14.2028 0044339 339.7900  20.0291  2.00559387 26926
1 40730U 15033A   19078.26460426 -.00000085  00000-0  00000-0 0  9995
2 40730  55.5921  14.2028 0044339 339.7900  20.0291  2.00559387 26926
1 40730U 15033A   19079.26178947 -.00000087  00000-0  00000+0 0  9991
2 40730  55.5922  14.1629 0044358 339.8587  19.9616  2.00559375 26943
1 40730U 15033A   19079.26178947 -.00000087  00000-0  00000-0 0  9992
2 40730  55.5922  14.1629 0044358 339.8587  19.9616  2.00559375 26943
1 40730U 15033A   19080.75757275 -.00000090  00000-0  00000+0 0  9998
2 40730  55.5923  14.1031 0044382 339.9774  19.8467  2.00559279 26976
1 40730U 15033A   19081.25616670 -.00000091  00000-0  00000-0 0  9999
2 40730  55.5923  14.0831 0044390 340.0175  19.8080  2.00559279 26982
1 40730U 15033A   19082.25335609 -.00000093  00000-0  00000-0 0  9992
2 40730  55.5923  14.0432 0044406 340.0897  19.7386  2.00559236 27003
1 40730U 15033A   19082.75195035 -.00000094  00000-0  00000+0 0  9994
2 40730  55.5924  14.0233 0044412 340.1186  19.7109  2.00559231 27011
1 40730U 15033A   19083.25054434 -.00000095  00000-0  00000+0 0  9998
2 40730  55.5924  14.0034 0044420 340.1633  19.6675  2.00559224 27026
1 40730U 15033A   19083.25054434 -.00000095  00000-0  00000-0 0  9999
2 40730  55.5924  14.0034 0044420 340.1633  19.6675  2.00559224 27026
1 40730U 15033A   19084.74632522 -.00000099  00000-0  00000+0 0  9997
2 40730  55.5924  13.9435 0044434 340.2627  19.5703  2.00559220 27058
